<?xml version="1.0" encoding="UTF-8"?>
<ndm xmlns:xsi="http://www.w3.org/2001/XMLSchema-instance" xsi:noNamespaceSchemaLocation="https://sanaregistry.org/r/ndmxml_unqualified/ndmxml-2.0.0-master-2.0.xsd">
<omm id="CCSDS_OMM_VERS" version="2.0">
<header><CREATION_DATE/><ORIGINATOR/></header><body><segment><metadata><OBJECT_NAME>KUIPER-00167</OBJECT_NAME><OBJECT_ID>2025-217U</OBJECT_ID><CENTER_NAME>EARTH</CENTER_NAME><REF_FRAME>TEME</REF_FRAME><TIME_SYSTEM>UTC</TIME_SYSTEM><MEAN_ELEMENT_THEORY>SGP4</MEAN_ELEMENT_THEORY></metadata><data><meanElements><EPOCH>2025-10-14T06:03:48.735360</EPOCH><MEAN_MOTION>15.35513341</MEAN_MOTION><ECCENTRICITY>.00059305</ECCENTRICITY><INCLINATION>51.8706</INCLINATION><RA_OF_ASC_NODE>352.0574</RA_OF_ASC_NODE><ARG_OF_PERICENTER>162.7176</ARG_OF_PERICENTER><MEAN_ANOMALY>197.4013</MEAN_ANOMALY></meanElements><tleParameters><EPHEMERIS_TYPE>0</EPHEMERIS_TYPE><CLASSIFICATION_TYPE>U</CLASSIFICATION_TYPE><NORAD_CAT_ID>65780</NORAD_CAT_ID><ELEMENT_SET_NO>999</ELEMENT_SET_NO><REV_AT_EPOCH>289</REV_AT_EPOCH><BSTAR>.15811901E-2</BSTAR><MEAN_MOTION_DOT>.55459E-3</MEAN_MOTION_DOT><MEAN_MOTION_DDOT>0</MEAN_MOTION_DDOT></tleParameters></data></segment></body></omm>
<omm id="CCSDS_OMM_VERS" version="2.0">
<header><CREATION_DATE/><ORIGINATOR/></header><body><segment><metadata><OBJECT_NAME>KUIPER-00168</OBJECT_NAME><OBJECT_ID>2025-217V</OBJECT_ID><CENTER_NAME>EARTH</CENTER_NAME><REF_FRAME>TEME</REF_FRAME><TIME_SYSTEM>UTC</TIME_SYSTEM><MEAN_ELEMENT_THEORY>SGP4</MEAN_ELEMENT_THEORY></metadata><data><meanElements><EPOCH>2025-10-14T05:32:38.577120</EPOCH><MEAN_MOTION>15.37255126</MEAN_MOTION><ECCENTRICITY>.00016822</ECCENTRICITY><INCLINATION>51.8746</INCLINATION><RA_OF_ASC_NODE>351.9158</RA_OF_ASC_NODE><ARG_OF_PERICENTER>61.0408</ARG_OF_PERICENTER><MEAN_ANOMALY>299.0748</MEAN_ANOMALY></meanElements><tleParameters><EPHEMERIS_TYPE>0</EPHEMERIS_TYPE><CLASSIFICATION_TYPE>U</CLASSIFICATION_TYPE><NORAD_CAT_ID>65781</NORAD_CAT_ID><ELEMENT_SET_NO>999</ELEMENT_SET_NO><REV_AT_EPOCH>289</REV_AT_EPOCH><BSTAR>.13294531E-2</BSTAR><MEAN_MOTION_DOT>.49206E-3</MEAN_MOTION_DOT><MEAN_MOTION_DDOT>0</MEAN_MOTION_DDOT></tleParameters></data></segment></body></omm>
<omm id="CCSDS_OMM_VERS" version="2.0">
<header><CREATION_DATE/><ORIGINATOR/></header><body><segment><metadata><OBJECT_NAME>KUIPER-00169</OBJECT_NAME><OBJECT_ID>2025-217W</OBJECT_ID><CENTER_NAME>EARTH</CENTER_NAME><REF_FRAME>TEME</REF_FRAME><TIME_SYSTEM>UTC</TIME_SYSTEM><MEAN_ELEMENT_THEORY>SGP4</MEAN_ELEMENT_THEORY></metadata><data><meanElements><EPOCH>2025-10-14T05:46:27.808896</EPOCH><MEAN_MOTION>15.36497768</MEAN_MOTION><ECCENTRICITY>.00031985</ECCENTRICITY><INCLINATION>51.8742</INCLINATION><RA_OF_ASC_NODE>351.9777</RA_OF_ASC_NODE><ARG_OF_PERICENTER>123.6870</ARG_OF_PERICENTER><MEAN_ANOMALY>236.4422</MEAN_ANOMALY></meanElements><tleParameters><EPHEMERIS_TYPE>0</EPHEMERIS_TYPE><CLASSIFICATION_TYPE>U</CLASSIFICATION_TYPE><NORAD_CAT_ID>65782</NORAD_CAT_ID><ELEMENT_SET_NO>999</ELEMENT_SET_NO><REV_AT_EPOCH>289</REV_AT_EPOCH><BSTAR>.15473404E-2</BSTAR><MEAN_MOTION_DOT>.55998E-3</MEAN_MOTION_DOT><MEAN_MOTION_DDOT>0</MEAN_MOTION_DDOT></tleParameters></data></segment></body></omm>
<omm id="CCSDS_OMM_VERS" version="2.0">
<header><CREATION_DATE/><ORIGINATOR/></header><body><segment><metadata><OBJECT_NAME>KUIPER-00170</OBJECT_NAME><OBJECT_ID>2025-217X</OBJECT_ID><CENTER_NAME>EARTH</CENTER_NAME><REF_FRAME>TEME</REF_FRAME><TIME_SYSTEM>UTC</TIME_SYSTEM><MEAN_ELEMENT_THEORY>SGP4</MEAN_ELEMENT_THEORY></metadata><data><meanElements><EPOCH>2025-10-14T04:28:21.702720</EPOCH><MEAN_MOTION>15.35616218</MEAN_MOTION><ECCENTRICITY>.00065981</ECCENTRICITY><INCLINATION>51.8694</INCLINATION><RA_OF_ASC_NODE>352.3627</RA_OF_ASC_NODE><ARG_OF_PERICENTER>157.0508</ARG_OF_PERICENTER><MEAN_ANOMALY>203.0774</MEAN_ANOMALY></meanElements><tleParameters><EPHEMERIS_TYPE>0</EPHEMERIS_TYPE><CLASSIFICATION_TYPE>U</CLASSIFICATION_TYPE><NORAD_CAT_ID>65783</NORAD_CAT_ID><ELEMENT_SET_NO>999</ELEMENT_SET_NO><REV_AT_EPOCH>288</REV_AT_EPOCH><BSTAR>.14918826E-2</BSTAR><MEAN_MOTION_DOT>.52464E-3</MEAN_MOTION_DOT><MEAN_MOTION_DDOT>0</MEAN_MOTION_DDOT></tleParameters></data></segment></body></omm>
<omm id="CCSDS_OMM_VERS" version="2.0">
<header><CREATION_DATE/><ORIGINATOR/></header><body><segment><metadata><OBJECT_NAME>KUIPER-00171</OBJECT_NAME><OBJECT_ID>2025-217Y</OBJECT_ID><CENTER_NAME>EARTH</CENTER_NAME><REF_FRAME>TEME</REF_FRAME><TIME_SYSTEM>UTC</TIME_SYSTEM><MEAN_ELEMENT_THEORY>SGP4</MEAN_ELEMENT_THEORY></metadata><data><meanElements><EPOCH>2025-10-14T05:53:01.352256</EPOCH><MEAN_MOTION>15.36177603</MEAN_MOTION><ECCENTRICITY>.00043034</ECCENTRICITY><INCLINATION>51.8704</INCLINATION><RA_OF_ASC_NODE>352.0093</RA_OF_ASC_NODE><ARG_OF_PERICENTER>145.0166</ARG_OF_PERICENTER><MEAN_ANOMALY>215.1104</MEAN_ANOMALY></meanElements><tleParameters><EPHEMERIS_TYPE>0</EPHEMERIS_TYPE><CLASSIFICATION_TYPE>U</CLASSIFICATION_TYPE><NORAD_CAT_ID>65784</NORAD_CAT_ID><ELEMENT_SET_NO>999</ELEMENT_SET_NO><REV_AT_EPOCH>289</REV_AT_EPOCH><BSTAR>.12120109E-2</BSTAR><MEAN_MOTION_DOT>.43259E-3</MEAN_MOTION_DOT><MEAN_MOTION_DDOT>0</MEAN_MOTION_DDOT></tleParameters></data></segment></body></omm>
<omm id="CCSDS_OMM_VERS" version="2.0">
<header><CREATION_DATE/><ORIGINATOR/></header><body><segment><metadata><OBJECT_NAME>KUIPER-00172</OBJECT_NAME><OBJECT_ID>2025-217Z</OBJECT_ID><CENTER_NAME>EARTH</CENTER_NAME><REF_FRAME>TEME</REF_FRAME><TIME_SYSTEM>UTC</TIME_SYSTEM><MEAN_ELEMENT_THEORY>SGP4</MEAN_ELEMENT_THEORY></metadata><data><meanElements><EPOCH>2025-10-14T05:39:10.157472</EPOCH><MEAN_MOTION>15.36922608</MEAN_MOTION><ECCENTRICITY>.00026592</ECCENTRICITY><INCLINATION>51.8746</INCLINATION><RA_OF_ASC_NODE>351.9444</RA_OF_ASC_NODE><ARG_OF_PERICENTER>97.3404</ARG_OF_PERICENTER><MEAN_ANOMALY>262.7884</MEAN_ANOMALY></meanElements><tleParameters><EPHEMERIS_TYPE>0</EPHEMERIS_TYPE><CLASSIFICATION_TYPE>U</CLASSIFICATION_TYPE><NORAD_CAT_ID>65785</NORAD_CAT_ID><ELEMENT_SET_NO>999</ELEMENT_SET_NO><REV_AT_EPOCH>289</REV_AT_EPOCH><BSTAR>.12005985E-2</BSTAR><MEAN_MOTION_DOT>.43892E-3</MEAN_MOTION_DOT><MEAN_MOTION_DDOT>0</MEAN_MOTION_DDOT></tleParameters></data></segment></body></omm>
<omm id="CCSDS_OMM_VERS" version="2.0">
<header><CREATION_DATE/><ORIGINATOR/></header><body><segment><metadata><OBJECT_NAME>KUIPER-00173</OBJECT_NAME><OBJECT_ID>2025-217AA</OBJECT_ID><CENTER_NAME>EARTH</CENTER_NAME><REF_FRAME>TEME</REF_FRAME><TIME_SYSTEM>UTC</TIME_SYSTEM><MEAN_ELEMENT_THEORY>SGP4</MEAN_ELEMENT_THEORY></metadata><data><meanElements><EPOCH>2025-10-14T05:43:06.624768</EPOCH><MEAN_MOTION>15.36693354</MEAN_MOTION><ECCENTRICITY>.00028958</ECCENTRICITY><INCLINATION>51.8731</INCLINATION><RA_OF_ASC_NODE>351.9645</RA_OF_ASC_NODE><ARG_OF_PERICENTER>112.9526</ARG_OF_PERICENTER><MEAN_ANOMALY>247.1766</MEAN_ANOMALY></meanElements><tleParameters><EPHEMERIS_TYPE>0</EPHEMERIS_TYPE><CLASSIFICATION_TYPE>U</CLASSIFICATION_TYPE><NORAD_CAT_ID>65786</NORAD_CAT_ID><ELEMENT_SET_NO>999</ELEMENT_SET_NO><REV_AT_EPOCH>289</REV_AT_EPOCH><BSTAR>.15364292E-2</BSTAR><MEAN_MOTION_DOT>.55952E-3</MEAN_MOTION_DOT><MEAN_MOTION_DDOT>0</MEAN_MOTION_DDOT></tleParameters></data></segment></body></omm>
<omm id="CCSDS_OMM_VERS" version="2.0">
<header><CREATION_DATE/><ORIGINATOR/></header><body><segment><metadata><OBJECT_NAME>KUIPER-00174</OBJECT_NAME><OBJECT_ID>2025-217AB</OBJECT_ID><CENTER_NAME>EARTH</CENTER_NAME><REF_FRAME>TEME</REF_FRAME><TIME_SYSTEM>UTC</TIME_SYSTEM><MEAN_ELEMENT_THEORY>SGP4</MEAN_ELEMENT_THEORY></metadata><data><meanElements><EPOCH>2025-10-14T05:34:10.965504</EPOCH><MEAN_MOTION>15.37158129</MEAN_MOTION><ECCENTRICITY>.00027104</ECCENTRICITY><INCLINATION>51.8748</INCLINATION><RA_OF_ASC_NODE>351.9201</RA_OF_ASC_NODE><ARG_OF_PERICENTER>62.7854</ARG_OF_PERICENTER><MEAN_ANOMALY>297.3409</MEAN_ANOMALY></meanElements><tleParameters><EPHEMERIS_TYPE>0</EPHEMERIS_TYPE><CLASSIFICATION_TYPE>U</CLASSIFICATION_TYPE><NORAD_CAT_ID>65787</NORAD_CAT_ID><ELEMENT_SET_NO>999</ELEMENT_SET_NO><REV_AT_EPOCH>289</REV_AT_EPOCH><BSTAR>.100605E-2</BSTAR><MEAN_MOTION_DOT>.36965E-3</MEAN_MOTION_DOT><MEAN_MOTION_DDOT>0</MEAN_MOTION_DDOT></tleParameters></data></segment></body></omm>

</ndm>
