KUIPER-00167            
1 65780U 25217U   25287.25264740  .00055459  00000+0  15812-2 0  9993
2 65780  51.8706 352.0574 0005930 162.7176 197.4013 15.35513341  2893
KUIPER-00168            
1 65781U 25217V   25287.23100205  .00049206  00000+0  13295-2 0  9993
2 65781  51.8746 351.9158 0001682  61.0408 299.0748 15.37255126  2893
KUIPER-00169            
1 65782U 25217W   25287.24059964  .00055998  00000+0  15473-2 0  9995
2 65782  51.8742 351.9777 0003198 123.6870 236.4422 15.36497768  2892
KUIPER-00170            
1 65783U 25217X   25287.18636230  .00052464  00000+0  14919-2 0  9995
2 65783  51.8694 352.3627 0006598 157.0508 203.0774 15.35616218  2885
KUIPER-00171            
1 65784U 25217Y   25287.24515454  .00043259  00000+0  12120-2 0  9991
2 65784  51.8704 352.0093 0004303 145.0166 215.1104 15.36177603  2894
KUIPER-00172            
1 65785U 25217Z   25287.23553423  .00043892  00000+0  12006-2 0  9995
2 65785  51.8746 351.9444 0002659  97.3404 262.7884 15.36922608  2891
KUIPER-00173            
1 65786U 25217AA  25287.23827112  .00055952  00000+0  15364-2 0  9995
2 65786  51.8731 351.9645 0002895 112.9526 247.1766 15.36693354  2899
KUIPER-00174            
1 65787U 25217AB  25287.23207136  .00036965  00000+0  10060-2 0  9995
2 65787  51.8748 351.9201 0002710  62.7854 297.3409 15.37158129  2896
